[{"OBJECT_NAME":"LEMUR-2-EMERSONROSE","OBJECT_ID":"2025-052BD","EPOCH":"2026-03-09T22:41:34.308672","MEAN_MOTION":14.98235234,"ECCENTRICITY":0.00026118,"INCLINATION":97.701,"RA_OF_ASC_NODE":323.5746,"ARG_OF_PERICENTER":47.547,"MEAN_ANOMALY":312.5973,"EPHEMERIS_TYPE":0,"CLASSIFICATION_TYPE":"U","NORAD_CAT_ID":63261,"ELEMENT_SET_NO":999,"REV_AT_EPOCH":5387,"BSTAR":0.00054278878,"MEAN_MOTION_DOT":6.392e-5,"MEAN_MOTION_DDOT":0},{"OBJECT_NAME":"CZ-4B DEB","OBJECT_ID":"1999-057BZ","EPOCH":"2026-03-09T10:47:31.286688","MEAN_MOTION":14.9004764,"ECCENTRICITY":0.00449145,"INCLINATION":98.5631,"RA_OF_ASC_NODE":129.7133,"ARG_OF_PERICENTER":286.2462,"MEAN_ANOMALY":73.3815,"EPHEMERIS_TYPE":0,"CLASSIFICATION_TYPE":"U","NORAD_CAT_ID":26187,"ELEMENT_SET_NO":999,"REV_AT_EPOCH":39955,"BSTAR":0.00034061798,"MEAN_MOTION_DOT":3.283e-5,"MEAN_MOTION_DDOT":0}]
